NORAD_CAT_ID,OBJECT_NAME,OBJECT_TYPE,EPOCH,MEAN_MOTION,ECCENTRICITY,INCLINATION,RA_OF_ASC_NODE,ARG_OF_PERICENTER,MEAN_ANOMALY,BSTAR,MEAN_MOTION_DOT,MEAN_MOTION_DDOT,TLE_LINE0,TLE_LINE1,TLE_LINE2,SEMIMAJOR_AXIS,PERIOD,APOGEE,PERIGEE,DECAYED
52271.0,STARLINK-3788,PAYLOAD,2024-03-30 07:47:53,15.08845177,0.0001411,53.2186,53.5806,98.914,261.2011,-3.3427e-07,-2.93e-06,0.0,0 STARLINK-3788,1 52271U 22041L   24090.32492014 -.00000293  00000-0 -33427-6 0  9997,2 52271  53.2186  53.5806 0001411  98.9140 261.2011 15.08845177108490,6917.865,95.437,540.706,538.753,0.0
52271.0,STARLINK-3788,PAYLOAD,2024-03-30 14:09:25,15.08850793,0.0001527,53.2197,52.3919,90.8966,269.2201,2.3148e-05,8.1e-07,0.0,0 STARLINK-3788,1 52271U 22041L   24090.58987508  .00000081  00000-0  23148-4 0  9992,2 52271  53.2197  52.3919 0001527  90.8966 269.2201 15.08850793107318,6917.847,95.437,540.769,538.656,0.0
52271.0,STARLINK-3788,PAYLOAD,2024-03-30 20:30:58,15.08842793,0.0001979,53.2203,51.2031,94.6416,265.4802,0.00010899,1.447e-05,0.0,0 STARLINK-3788,1 52271U 22041L   24090.85484193  .00001447  00000-0  10899-3 0  9999,2 52271  53.2203  51.2031 0001979  94.6416 265.4802 15.08842793107352,6917.872,95.437,541.106,538.368,0.0
52271.0,STARLINK-3788,PAYLOAD,2024-03-31 04:27:54,15.08833058,0.0001406,53.2197,49.7166,101.9657,258.1493,6.5667e-05,7.57e-06,0.0,0 STARLINK-3788,1 52271U 22041L   24091.18605021  .00000757  00000-0  65667-4 0  9998,2 52271  53.2197  49.7166 0001406 101.9657 258.1493 15.08833058108629,6917.902,95.438,540.739,538.794,0.0
52271.0,STARLINK-3788,PAYLOAD,2024-03-31 07:38:40,15.0884395,0.0001318,53.2175,49.1173,80.0203,280.0938,0.00016417,2.326e-05,0.0,0 STARLINK-3788,1 52271U 22041L   24091.31852226  .00002326  00000-0  16417-3 0  9996,2 52271  53.2175  49.1173 0001318  80.0203 280.0938 15.08843950108645,6917.868,95.437,540.645,538.822,0.0
52271.0,STARLINK-3788,PAYLOAD,2024-03-31 14:00:12,15.0884914,0.0001498,53.2192,47.9304,89.291,270.8254,0.00015507,2.181e-05,0.0,0 STARLINK-3788,1 52271U 22041L   24091.58347718  .00002181  00000-0  15507-3 0  9998,2 52271  53.2192  47.9304 0001498  89.2910 270.8254 15.08849140107465,6917.852,95.437,540.754,538.681,0.0
52271.0,STARLINK-3788,PAYLOAD,2024-03-31 20:21:45,15.08839356,0.0002033,53.2186,46.7444,97.9903,262.132,0.00015834,2.233e-05,0.0,0 STARLINK-3788,1 52271U 22041L   24091.84844386  .00002233  00000-0  15834-3 0  9991,2 52271  53.2186  46.7444 0002033  97.9903 262.1320 15.08839356107505,6917.882,95.438,541.154,538.341,0.0
52271.0,STARLINK-3788,PAYLOAD,2024-04-01 02:43:18,15.08830627,0.0001576,53.2191,45.552,96.4262,263.691,-8.1189e-06,-4.17e-06,0.0,0 STARLINK-3788,1 52271U 22041L   24092.11340947 -.00000417  00000-0 -81189-5 0  9998,2 52271  53.2191  45.5520 0001576  96.4262 263.6910 15.08830627108768,6917.909,95.438,540.864,538.684,0.0
52271.0,STARLINK-3788,PAYLOAD,2024-04-01 13:51:00,15.08846995,0.0001478,53.2185,43.4702,89.153,270.9632,0.00026611,3.951e-05,0.0,0 STARLINK-3788,1 52271U 22041L   24092.57708350  .00003951  00000-0  26611-3 0  9995,2 52271  53.2185  43.4702 0001478  89.1530 270.9632 15.08846995107618,6917.859,95.437,540.746,538.702,0.0
52271.0,STARLINK-3788,PAYLOAD,2024-04-01 20:12:32,15.08843417,0.0001662,53.2178,42.2837,87.6461,272.4722,0.00019261,2.779e-05,0.0,0 STARLINK-3788,1 52271U 22041L   24092.84204573  .00002779  00000-0  19261-3 0  9993,2 52271  53.2178  42.2837 0001662  87.6461 272.4722 15.08843417108879,6917.87,95.437,540.885,538.585,0.0
52271.0,STARLINK-3788,PAYLOAD,2024-04-02 02:34:05,15.08834463,0.0001476,53.2187,41.0927,82.6281,277.4879,0.00011343,1.517e-05,0.0,0 STARLINK-3788,1 52271U 22041L   24093.10701134  .00001517  00000-0  11343-3 0  9990,2 52271  53.2187  41.0927 0001476  82.6281 277.4879 15.08834463108918,6917.897,95.438,540.783,538.741,0.0
52271.0,STARLINK-3788,PAYLOAD,2024-04-02 13:41:46,15.08850265,0.0001484,53.2191,39.0106,92.9812,267.135,0.00017681,2.528e-05,0.0,0 STARLINK-3788,1 52271U 22041L   24093.57068231  .00002528  00000-0  17681-3 0  9999,2 52271  53.2191  39.0106 0001484  92.9812 267.1350 15.08850265107762,6917.849,95.437,540.741,538.687,0.0
52271.0,STARLINK-3788,PAYLOAD,2024-04-03 02:24:53,15.0882998,0.0001238,53.2195,36.6305,89.0204,271.0929,5.9429e-05,6.58e-06,0.0,0 STARLINK-3788,1 52271U 22041L   24094.10061383  .00000658  00000-0  59429-4 0  9999,2 52271  53.2195  36.6305 0001238  89.0204 271.0929 15.08829980109060,6917.911,95.438,540.632,538.92,0.0
52271.0,STARLINK-3788,PAYLOAD,2024-04-03 13:32:34,15.08846225,0.0001431,53.2172,34.5478,92.5694,267.5462,0.00014868,2.079e-05,0.0,0 STARLINK-3788,1 52271U 22041L   24094.56428619  .00002079  00000-0  14868-3 0  9994,2 52271  53.2172  34.5478 0001431  92.5694 267.5462 15.08846225107915,6917.861,95.437,540.716,538.736,0.0
52271.0,STARLINK-3788,PAYLOAD,2024-04-04 02:15:39,15.08840488,0.0001478,53.2178,32.1699,92.2133,267.9029,0.00015531,2.185e-05,0.0,0 STARLINK-3788,1 52271U 22041L   24095.09421042  .00002185  00000-0  15531-3 0  9992,2 52271  53.2178  32.1699 0001478  92.2133 267.9029 15.08840488109219,6917.879,95.438,540.766,538.721,0.0
52271.0,STARLINK-3788,PAYLOAD,2024-04-04 05:26:25,15.08842886,0.0001448,53.2182,31.5743,98.2214,261.8943,9.1924e-05,1.175e-05,0.0,0 STARLINK-3788,1 52271U 22041L   24095.22668894  .00001175  00000-0  91924-4 0  9994,2 52271  53.2182  31.5743 0001448  98.2214 261.8943 15.08842886108019,6917.872,95.437,540.738,538.735,0.0
52271.0,STARLINK-3788,PAYLOAD,2024-04-05 05:17:12,15.0884408,0.0001499,53.2183,27.1142,93.875,266.2414,0.0001819,2.608e-05,0.0,0 STARLINK-3788,1 52271U 22041L   24096.22028782  .00002608  00000-0  18190-3 0  9996,2 52271  53.2183  27.1142 0001499  93.8750 266.2414 15.08844080109387,6917.868,95.437,540.77,538.696,0.0
52271.0,STARLINK-3788,PAYLOAD,2024-04-06 01:57:13,15.08840705,0.0001361,53.2179,23.2493,91.4629,268.6519,9.0792e-05,1.157e-05,0.0,0 STARLINK-3788,1 52271U 22041L   24097.08140869  .00001157  00000-0  90792-4 0  9999,2 52271  53.2179  23.2493 0001361  91.4629 268.6519 15.08840705109512,6917.878,95.438,540.685,538.802,0.0
52271.0,STARLINK-3788,PAYLOAD,2024-04-06 11:29:32,15.08849872,0.000126,53.2189,21.4641,88.9637,271.15,0.00016819,2.391e-05,0.0,0 STARLINK-3788,1 52271U 22041L   24097.47884274  .00002391  00000-0  16819-3 0  9995,2 52271  53.2189  21.4641 0001260  88.9637 271.1500 15.08849872108350,6917.85,95.437,540.587,538.844,0.0
52271.0,STARLINK-3788,PAYLOAD,2024-04-06 22:37:14,15.08829376,0.0001215,53.2178,19.3846,95.2189,264.8942,-0.00013664,-2.461e-05,0.0,0 STARLINK-3788,1 52271U 22041L   24097.94253415 -.00002461  00000-0 -13664-3 0  9999,2 52271  53.2178  19.3846 0001215  95.2189 264.8942 15.08829376108428,6917.913,95.438,540.618,538.937,0.0
52271.0,STARLINK-3788,PAYLOAD,2024-04-07 04:58:47,15.08833383,0.0001469,53.2195,18.1952,99.7944,260.3214,-7.544e-05,-1.488e-05,0.0,0 STARLINK-3788,1 52271U 22041L   24098.20749288 -.00001488  00000-0 -75440-4 0  9996,2 52271  53.2195  18.1952 0001469  99.7944 260.3214 15.08833383109686,6917.901,95.438,540.782,538.749,0.0
52271.0,STARLINK-3788,PAYLOAD,2024-04-07 22:28:01,15.08837257,0.0001287,53.219,14.9246,102.3251,257.7886,4.8007e-05,4.76e-06,0.0,0 STARLINK-3788,1 52271U 22041L   24098.93613312  .00000476  00000-0  48007-4 0  9997,2 52271  53.2190  14.9246 0001287 102.3251 257.7886 15.08837257108577,6917.889,95.438,540.644,538.863,0.0
52271.0,STARLINK-3788,PAYLOAD,2024-04-08 11:11:06,15.08851212,0.0001138,53.2192,12.5444,87.5483,272.564,0.00021148,3.08e-05,0.0,0 STARLINK-3788,1 52271U 22041L   24099.46604724  .00003080  00000-0  21148-3 0  9993,2 52271  53.2192  12.5444 0001138  87.5483 272.5640 15.08851212109873,6917.846,95.437,540.498,538.924,0.0
52271.0,STARLINK-3788,PAYLOAD,2024-04-08 23:54:12,15.08834814,0.000157,53.2203,10.1664,91.3646,268.7526,5.3251e-05,5.59e-06,0.0,0 STARLINK-3788,1 52271U 22041L   24099.99597777  .00000559  00000-0  53251-4 0  9999,2 52271  53.2203  10.1664 0001570  91.3646 268.7526 15.08834814108731,6917.896,95.438,540.847,538.675,0.0
52271.0,STARLINK-3788,PAYLOAD,2024-04-09 03:04:58,15.08839166,0.0001325,53.219,9.5719,90.8074,269.307,0.00013023,1.785e-05,0.0,0 STARLINK-3788,1 52271U 22041L   24100.12845577  .00001785  00000-0  13023-3 0  9995,2 52271  53.2190   9.5719 0001325  90.8074 269.3070 15.08839166109979,6917.883,95.438,540.665,538.831,0.0
52271.0,STARLINK-3788,PAYLOAD,2024-04-09 11:01:53,15.08848645,0.0001294,53.2186,8.0846,84.7691,275.3449,0.00023736,3.493e-05,0.0,0 STARLINK-3788,1 52271U 22041L   24100.45965098  .00003493  00000-0  23736-3 0  9992,2 52271  53.2186   8.0846 0001294  84.7691 275.3449 15.08848645108801,6917.854,95.437,540.614,538.824,0.0
52271.0,STARLINK-3788,PAYLOAD,2024-04-10 01:20:22,15.08841847,0.0001257,53.2184,5.4083,87.1137,272.9999,0.00012333,1.676e-05,0.0,0 STARLINK-3788,1 52271U 22041L   24101.05581415  .00001676  00000-0  12333-3 0  9998,2 52271  53.2184   5.4083 0001257  87.1137 272.9999 15.08841847110111,6917.875,95.437,540.609,538.87,0.0
52271.0,STARLINK-3788,PAYLOAD,2024-04-10 10:52:40,15.08854334,0.0001252,53.2192,3.625,87.637,272.4766,0.0001978,2.863e-05,0.0,0 STARLINK-3788,1 52271U 22041L   24101.45324614  .00002863  00000-0  19780-3 0  9990,2 52271  53.2192   3.6250 0001252  87.6370 272.4766 15.08854334110173,6917.837,95.437,540.568,538.835,0.0
52271.0,STARLINK-3788,PAYLOAD,2024-04-10 22:00:23,15.08834405,0.0001375,53.2197,1.5417,93.3066,266.8084,6.1319e-05,6.88e-06,0.0,0 STARLINK-3788,1 52271U 22041L   24101.91693802  .00000688  00000-0  61319-4 0  9998,2 52271  53.2197   1.5417 0001375  93.3066 266.8084 15.08834405109021,6917.897,95.438,540.714,538.811,0.0
52271.0,STARLINK-3788,PAYLOAD,2024-04-11 02:46:32,15.0883861,0.0001517,53.2202,0.6492,94.471,265.6456,1.9899e-05,2.9e-07,0.0,0 STARLINK-3788,1 52271U 22041L   24102.11565649  .00000029  00000-0  19899-4 0  9993,2 52271  53.2202   0.6492 0001517  94.4710 265.6456 15.08838610110278,6917.885,95.438,540.799,538.7,0.0
